[{"OBJECT_NAME":"GONETS-M 16","OBJECT_ID":"2019-096C","EPOCH":"2026-04-25T20:40:22.316160","MEAN_MOTION":12.42890158,"ECCENTRICITY":0.0010531,"INCLINATION":82.5161,"RA_OF_ASC_NODE":116.514,"ARG_OF_PERICENTER":339.3091,"MEAN_ANOMALY":20.7561,"EPHEMERIS_TYPE":0,"CLASSIFICATION_TYPE":"U","NORAD_CAT_ID":44907,"ELEMENT_SET_NO":999,"REV_AT_EPOCH":28713,"BSTAR":0.00033783,"MEAN_MOTION_DOT":5.7e-7,"MEAN_MOTION_DDOT":0},{"OBJECT_NAME":"RS-44 & BREEZE-KM R/B","OBJECT_ID":"2019-096E","EPOCH":"2026-04-25T18:43:17.781024","MEAN_MOTION":12.79747976,"ECCENTRICITY":0.0216373,"INCLINATION":82.5261,"RA_OF_ASC_NODE":14.5305,"ARG_OF_PERICENTER":266.9379,"MEAN_ANOMALY":90.6945,"EPHEMERIS_TYPE":0,"CLASSIFICATION_TYPE":"U","NORAD_CAT_ID":44909,"ELEMENT_SET_NO":999,"REV_AT_EPOCH":29564,"BSTAR":-2.2322e-5,"MEAN_MOTION_DOT":4.0e-8,"MEAN_MOTION_DDOT":0},{"OBJECT_NAME":"JILIN-1 KUANFU 01","OBJECT_ID":"2020-003A","EPOCH":"2026-04-25T19:43:28.133760","MEAN_MOTION":15.10414539,"ECCENTRICITY":0.0011272,"INCLINATION":97.5043,"RA_OF_ASC_NODE":190.8071,"ARG_OF_PERICENTER":119.2809,"MEAN_ANOMALY":240.9549,"EPHEMERIS_TYPE":0,"CLASSIFICATION_TYPE":"U","NORAD_CAT_ID":45016,"ELEMENT_SET_NO":999,"REV_AT_EPOCH":34742,"BSTAR":0.000257,"MEAN_MOTION_DOT":4.166e-5,"MEAN_MOTION_DDOT":0},{"OBJECT_NAME":"XINGYUN-2 01","OBJECT_ID":"2020-028A","EPOCH":"2026-04-25T20:23:25.202400","MEAN_MOTION":15.11575576,"ECCENTRICITY":0.0010117,"INCLINATION":97.487,"RA_OF_ASC_NODE":109.3013,"ARG_OF_PERICENTER":33.4103,"MEAN_ANOMALY":326.7763,"EPHEMERIS_TYPE":0,"CLASSIFICATION_TYPE":"U","NORAD_CAT_ID":45602,"ELEMENT_SET_NO":999,"REV_AT_EPOCH":32693,"BSTAR":0.00019907,"MEAN_MOTION_DOT":3.317e-5,"MEAN_MOTION_DDOT":0},{"OBJECT_NAME":"XINGYUN-2 02","OBJECT_ID":"2020-028B","EPOCH":"2026-04-25T19:39:28.663200","MEAN_MOTION":15.11315514,"ECCENTRICITY":0.0012714,"INCLINATION":97.5096,"RA_OF_ASC_NODE":122.7375,"ARG_OF_PERICENTER":91.1769,"MEAN_ANOMALY":269.0918,"EPHEMERIS_TYPE":0,"CLASSIFICATION_TYPE":"U","NORAD_CAT_ID":45603,"ELEMENT_SET_NO":999,"REV_AT_EPOCH":32692,"BSTAR":0.00014034,"MEAN_MOTION_DOT":2.304e-5,"MEAN_MOTION_DDOT":0},{"OBJECT_NAME":"HAIYANG-1D","OBJECT_ID":"2020-036A","EPOCH":"2026-04-25T20:34:53.793120","MEAN_MOTION":14.34224502,"ECCENTRICITY":0.0001865,"INCLINATION":98.4521,"RA_OF_ASC_NODE":58.683,"ARG_OF_PERICENTER":338.2689,"MEAN_ANOMALY":21.8417,"EPHEMERIS_TYPE":0,"CLASSIFICATION_TYPE":"U","NORAD_CAT_ID":45721,"ELEMENT_SET_NO":999,"REV_AT_EPOCH":30747,"BSTAR":6.8265e-5,"MEAN_MOTION_DOT":1.48e-6,"MEAN_MOTION_DDOT":0},{"OBJECT_NAME":"M2 PATHFINDER","OBJECT_ID":"2020-037E","EPOCH":"2026-04-25T18:32:52.770336","MEAN_MOTION":15.04440275,"ECCENTRICITY":0.0010867,"INCLINATION":97.8167,"RA_OF_ASC_NODE":306.419,"ARG_OF_PERICENTER":338.3577,"MEAN_ANOMALY":21.7187,"EPHEMERIS_TYPE":0,"CLASSIFICATION_TYPE":"U","NORAD_CAT_ID":45727,"ELEMENT_SET_NO":999,"REV_AT_EPOCH":31761,"BSTAR":0.00011046,"MEAN_MOTION_DOT":1.481e-5,"MEAN_MOTION_DDOT":0},{"OBJECT_NAME":"GAOFEN DUOMO (GFDM)","OBJECT_ID":"2020-042A","EPOCH":"2026-04-25T20:01:04.617408","MEAN_MOTION":14.76804367,"ECCENTRICITY":0.000958,"INCLINATION":97.7781,"RA_OF_ASC_NODE":177.6162,"ARG_OF_PERICENTER":239.3455,"MEAN_ANOMALY":120.6812,"EPHEMERIS_TYPE":0,"CLASSIFICATION_TYPE":"U","NORAD_CAT_ID":45856,"ELEMENT_SET_NO":999,"REV_AT_EPOCH":31328,"BSTAR":3.0601e-5,"MEAN_MOTION_DOT":1.66e-6,"MEAN_MOTION_DDOT":0},{"OBJECT_NAME":"ZIYUAN 3-03 (ZY 3-03)","OBJECT_ID":"2020-051A","EPOCH":"2026-04-25T19:56:18.659328","MEAN_MOTION":15.21328704,"ECCENTRICITY":0.0006913,"INCLINATION":97.2858,"RA_OF_ASC_NODE":185.2381,"ARG_OF_PERICENTER":122.643,"MEAN_ANOMALY":237.5474,"EPHEMERIS_TYPE":0,"CLASSIFICATION_TYPE":"U","NORAD_CAT_ID":45939,"ELEMENT_SET_NO":999,"REV_AT_EPOCH":31938,"BSTAR":0.00018964,"MEAN_MOTION_DOT":4.181e-5,"MEAN_MOTION_DDOT":0},{"OBJECT_NAME":"NEMO-HD","OBJECT_ID":"2020-061F","EPOCH":"2026-04-25T19:55:28.403040","MEAN_MOTION":15.43520342,"ECCENTRICITY":0.0001421,"INCLINATION":97.1961,"RA_OF_ASC_NODE":178.3428,"ARG_OF_PERICENTER":132.6546,"MEAN_ANOMALY":227.4822,"EPHEMERIS_TYPE":0,"CLASSIFICATION_TYPE":"U","NORAD_CAT_ID":46277,"ELEMENT_SET_NO":999,"REV_AT_EPOCH":31390,"BSTAR":0.00023854,"MEAN_MOTION_DOT":0.00010614,"MEAN_MOTION_DDOT":0},{"OBJECT_NAME":"3CAT-5A","OBJECT_ID":"2020-061W","EPOCH":"2026-04-25T17:21:54.486720","MEAN_MOTION":15.44461733,"ECCENTRICITY":7.95e-5,"INCLINATION":97.2446,"RA_OF_ASC_NODE":178.7313,"ARG_OF_PERICENTER":29.2522,"MEAN_ANOMALY":330.8771,"EPHEMERIS_TYPE":0,"CLASSIFICATION_TYPE":"U","NORAD_CAT_ID":46292,"ELEMENT_SET_NO":999,"REV_AT_EPOCH":31292,"BSTAR":0.0003479,"MEAN_MOTION_DOT":0.00016031,"MEAN_MOTION_DDOT":0},{"OBJECT_NAME":"3CAT-5B","OBJECT_ID":"2020-061X","EPOCH":"2026-04-25T16:28:38.917056","MEAN_MOTION":15.45698441,"ECCENTRICITY":8.56e-5,"INCLINATION":97.2443,"RA_OF_ASC_NODE":179.5778,"ARG_OF_PERICENTER":11.8749,"MEAN_ANOMALY":348.252,"EPHEMERIS_TYPE":0,"CLASSIFICATION_TYPE":"U","NORAD_CAT_ID":46293,"ELEMENT_SET_NO":999,"REV_AT_EPOCH":31294,"BSTAR":0.00036128,"MEAN_MOTION_DOT":0.0001737,"MEAN_MOTION_DDOT":0},{"OBJECT_NAME":"NAPA-1","OBJECT_ID":"2020-061BA","EPOCH":"2026-04-25T20:24:20.208960","MEAN_MOTION":15.61824921,"ECCENTRICITY":0.000183,"INCLINATION":97.2503,"RA_OF_ASC_NODE":188.5588,"ARG_OF_PERICENTER":146.7157,"MEAN_ANOMALY":213.4216,"EPHEMERIS_TYPE":0,"CLASSIFICATION_TYPE":"U","NORAD_CAT_ID":46320,"ELEMENT_SET_NO":999,"REV_AT_EPOCH":31355,"BSTAR":0.00065146,"MEAN_MOTION_DOT":0.0005661,"MEAN_MOTION_DDOT":0},{"OBJECT_NAME":"JILIN-1 GAOFEN 3B","OBJECT_ID":"2020-065A","EPOCH":"2026-04-25T20:22:09.145344","MEAN_MOTION":16.27789132,"ECCENTRICITY":0.0009626,"INCLINATION":97.2021,"RA_OF_ASC_NODE":176.7025,"ARG_OF_PERICENTER":251.4411,"MEAN_ANOMALY":108.5837,"EPHEMERIS_TYPE":0,"CLASSIFICATION_TYPE":"U","NORAD_CAT_ID":46454,"ELEMENT_SET_NO":999,"REV_AT_EPOCH":31223,"BSTAR":0.0010382,"MEAN_MOTION_DOT":0.03730461,"MEAN_MOTION_DDOT":2.3637e-6},{"OBJECT_NAME":"JILIN-1 GAOFEN 3E","OBJECT_ID":"2020-065D","EPOCH":"2026-04-25T20:07:50.147040","MEAN_MOTION":15.58119928,"ECCENTRICITY":0.0010817,"INCLINATION":97.2327,"RA_OF_ASC_NODE":167.446,"ARG_OF_PERICENTER":3.9317,"MEAN_ANOMALY":356.2022,"EPHEMERIS_TYPE":0,"CLASSIFICATION_TYPE":"U","NORAD_CAT_ID":46457,"ELEMENT_SET_NO":999,"REV_AT_EPOCH":31159,"BSTAR":0.00068362,"MEAN_MOTION_DOT":0.00051709,"MEAN_MOTION_DDOT":0},{"OBJECT_NAME":"JILIN-1 GAOFEN 3F","OBJECT_ID":"2020-065E","EPOCH":"2026-04-25T20:24:06.903360","MEAN_MOTION":15.56125807,"ECCENTRICITY":0.0012019,"INCLINATION":97.2281,"RA_OF_ASC_NODE":165.0101,"ARG_OF_PERICENTER":350.2648,"MEAN_ANOMALY":9.8372,"EPHEMERIS_TYPE":0,"CLASSIFICATION_TYPE":"U","NORAD_CAT_ID":46458,"ELEMENT_SET_NO":999,"REV_AT_EPOCH":31155,"BSTAR":0.00065979,"MEAN_MOTION_DOT":0.00046334,"MEAN_MOTION_DDOT":0}]
