GONETS-M 16             
1 44907U 19096C   26115.86136940  .00000057  00000+0  33783-3 0  9999
2 44907  82.5161 116.5140 0010531 339.3091  20.7561 12.42890158287137
RS-44 & BREEZE-KM R/B   
1 44909U 19096E   26115.78006691  .00000004  00000+0 -22322-4 0  9992
2 44909  82.5261  14.5305 0216373 266.9379  90.6945 12.79747976295642
JILIN-1 KUANFU 01       
1 45016U 20003A   26115.82185340  .00004166  00000+0  25700-3 0  9990
2 45016  97.5043 190.8071 0011272 119.2809 240.9549 15.10414539347421
XINGYUN-2 01            
1 45602U 20028A   26115.84959725  .00003317  00000+0  19907-3 0  9995
2 45602  97.4870 109.3013 0010117  33.4103 326.7763 15.11575576326935
XINGYUN-2 02            
1 45603U 20028B   26115.81908175  .00002304  00000+0  14034-3 0  9997
2 45603  97.5096 122.7375 0012714  91.1769 269.0918 15.11315514326925
HAIYANG-1D              
1 45721U 20036A   26115.85756705  .00000148  00000+0  68265-4 0  9991
2 45721  98.4521  58.6830 0001865 338.2689  21.8417 14.34224502307470
M2 PATHFINDER           
1 45727U 20037E   26115.77283299  .00001481  00000+0  11046-3 0  9997
2 45727  97.8167 306.4190 0010867 338.3577  21.7187 15.04440275317612
GAOFEN DUOMO (GFDM)     
1 45856U 20042A   26115.83408122  .00000166  00000+0  30601-4 0  9995
2 45856  97.7781 177.6162 0009580 239.3455 120.6812 14.76804367313285
ZIYUAN 3-03 (ZY 3-03)   
1 45939U 20051A   26115.83077152  .00004181  00000+0  18964-3 0  9990
2 45939  97.2858 185.2381 0006913 122.6430 237.5474 15.21328704319385
NEMO-HD                 
1 46277U 20061F   26115.83018985  .00010614  00000+0  23854-3 0  9998
2 46277  97.1961 178.3428 0001421 132.6546 227.4822 15.43520342313901
3CAT-5A                 
1 46292U 20061W   26115.72354730  .00016031  00000+0  34790-3 0  9994
2 46292  97.2446 178.7313 0000795  29.2522 330.8771 15.44461733312924
3CAT-5B                 
1 46293U 20061X   26115.68656154  .00017370  00000+0  36128-3 0  9999
2 46293  97.2443 179.5778 0000856  11.8749 348.2520 15.45698441312948
NAPA-1                  
1 46320U 20061BA  26115.85023390  .00056610  00000+0  65146-3 0  9991
2 46320  97.2503 188.5588 0001830 146.7157 213.4216 15.61824921313554
JILIN-1 GAOFEN 3B       
1 46454U 20065A   26115.84871696  .03730461  23637-5  10382-2 0  9996
2 46454  97.2021 176.7025 0009626 251.4411 108.5837 16.27789132312234
JILIN-1 GAOFEN 3E       
1 46457U 20065D   26115.83877485  .00051709  00000+0  68362-3 0  9993
2 46457  97.2327 167.4460 0010817   3.9317 356.2022 15.58119928311594
JILIN-1 GAOFEN 3F       
1 46458U 20065E   26115.85007990  .00046334  00000+0  65979-3 0  9991
2 46458  97.2281 165.0101 0012019 350.2648   9.8372 15.56125807311557
